VCC B                   
1 44431U 98067QR  20105.82686643  .00012027  00000-0  17523-3 0  9990
2 44431  51.6398 294.0327 0003185 105.5733 254.5611 15.56159282 44532
ATL-1                   
1 44830U 19084G   20106.32847909  .00053152  00000-0  38291-3 0  9994
2 44830  96.9852 335.1079 0033450 118.6049 241.8588 15.72628015 20513
SMOG-P                  
1 44832U 19084J   20106.17373791  .00063530  00000-0  44519-3 0  9993
2 44832  96.9858 335.0271 0032541 117.8694 242.5873 15.73279118 20490
DUCHIFAT-3              
1 44854U 19089C   20106.41573704  .00000337  00000-0  33726-4 0  9990
2 44854  36.9669 110.8789 0009132 276.9608  83.0094 14.99021722 18834
ORBITAL FACTORY 2 (OF-2)
1 45113U 19071C   20105.99986406  .00001272  00000-0  50752-4 0  9996
2 45113  51.6431 310.0226 0013108 185.9892 174.0935 15.33109918 11398
